[{"OBJECT_NAME":"STARLINK-6140","OBJECT_ID":"2023-090L","EPOCH":"2026-03-09T22:54:44.119584","MEAN_MOTION":15.02533618,"ECCENTRICITY":0.00012835,"INCLINATION":43.0036,"RA_OF_ASC_NODE":273.1778,"ARG_OF_PERICENTER":261.6443,"MEAN_ANOMALY":98.4254,"EPHEMERIS_TYPE":0,"CLASSIFICATION_TYPE":"U","NORAD_CAT_ID":57111,"ELEMENT_SET_NO":999,"REV_AT_EPOCH":15045,"BSTAR":4.2759088e-5,"MEAN_MOTION_DOT":3.74e-6,"MEAN_MOTION_DDOT":0},{"OBJECT_NAME":"THOR ABLESTAR DEB","OBJECT_ID":"1961-015G","EPOCH":"2026-03-09T12:36:21.518784","MEAN_MOTION":14.9924172,"ECCENTRICITY":0.00458994,"INCLINATION":66.74,"RA_OF_ASC_NODE":114.2823,"ARG_OF_PERICENTER":282.1843,"MEAN_ANOMALY":77.4151,"EPHEMERIS_TYPE":0,"CLASSIFICATION_TYPE":"U","NORAD_CAT_ID":122,"ELEMENT_SET_NO":999,"REV_AT_EPOCH":37932,"BSTAR":0.00092278357,"MEAN_MOTION_DOT":0.00011411,"MEAN_MOTION_DDOT":0}]
